IRIDIUM 106             
1 41917U 17003A   25308.16178451 -.00000023  00000+0 -15107-4 0  9998
2 41917  86.4024 182.5561 0001539  80.8357 279.3013 14.34217426460958
IRIDIUM 103             
1 41918U 17003B   25308.14909985  .00000130  00000+0  39348-4 0  9991
2 41918  86.4021 182.4623 0002222  72.8372 287.3067 14.34216860460973
IRIDIUM 109             
1 41919U 17003C   25308.15544297  .00000247  00000+0  81152-4 0  9993
2 41919  86.4019 182.5152 0002156  81.4451 278.6989 14.34217640460949
IRIDIUM 102             
1 41920U 17003D   25308.19349842 -.00000014  00000+0 -11888-4 0  9991
2 41920  86.4022 182.4276 0002065  87.1136 273.0297 14.34217501461031
IRIDIUM 105             
1 41921U 17003E   25308.09446109  .00000321  00000+0  10771-3 0  9993
2 41921  86.3980 150.9748 0002139  82.2180 277.9259 14.34221898462873
IRIDIUM 104             
1 41922U 17003F   25308.20618347  .00000106  00000+0  30740-4 0  9992
2 41922  86.4019 182.4618 0002528  81.6018 278.5464 14.34216697461021
IRIDIUM 114             
1 41923U 17003G   25308.21252641  .00000161  00000+0  50503-4 0  9995
2 41923  86.4019 182.4430 0002198  80.4285 279.7159 14.34217926461008
IRIDIUM 108             
1 41924U 17003H   25308.10127717  .00000013  00000+0 -22691-5 0  9994
2 41924  86.3982 150.8643 0001994  91.6196 268.5228 14.34218041462845
